NORAD_CAT_ID,OBJECT_NAME,OBJECT_TYPE,EPOCH,MEAN_MOTION,ECCENTRICITY,INCLINATION,RA_OF_ASC_NODE,ARG_OF_PERICENTER,MEAN_ANOMALY,BSTAR,MEAN_MOTION_DOT,MEAN_MOTION_DDOT,TLE_LINE0,TLE_LINE1,TLE_LINE2,SEMIMAJOR_AXIS,PERIOD,APOGEE,PERIGEE,DECAYED
52694.0,STARLINK-4072,PAYLOAD,2023-07-28 23:59:37,15.0889273,6.93e-05,53.2168,109.8916,86.1834,273.9238,-0.00046626,-7.711e-05,0.0,0 STARLINK-4072,1 52694U 22053AQ  23209.99973929 -.00007711  00000-0 -46626-3 0  9996,2 52694  53.2168 109.8916 0000693  86.1834 273.9238 15.08892730 66622,6917.719,95.434,540.064,539.105,0.0
52694.0,STARLINK-4072,PAYLOAD,2023-07-29 03:10:24,15.08860287,0.0001415,53.2168,109.2967,92.4743,267.6411,3.2674e-05,2.32e-06,0.0,0 STARLINK-4072,1 52694U 22053AQ  23210.13222293  .00000232  00000-0  32674-4 0  9993,2 52694  53.2168 109.2967 0001415  92.4743 267.6411 15.08860287 66641,6917.818,95.436,540.662,538.705,0.0
52694.0,STARLINK-4072,PAYLOAD,2023-07-30 01:25:48,15.08841123,0.0001113,53.2175,105.1302,90.7612,269.3508,0.00017795,2.545e-05,0.0,0 STARLINK-4072,1 52694U 22053AQ  23211.05959236  .00002545  00000-0  17795-3 0  9994,2 52694  53.2175 105.1302 0001113  90.7612 269.3508 15.08841123 66787,6917.877,95.437,540.512,538.972,0.0
52694.0,STARLINK-4072,PAYLOAD,2023-07-31 09:13:31,15.0884534,0.000111,53.2181,99.1873,86.867,273.2449,-6.1779e-05,-1.271e-05,0.0,0 STARLINK-4072,1 52694U 22053AQ  23212.38439488 -.00001271  00000-0 -61779-4 0  9992,2 52694  53.2181  99.1873 0001110  86.8670 273.2449 15.08845340 66981,6917.864,95.437,540.497,538.961,0.0
52694.0,STARLINK-4072,PAYLOAD,2023-08-01 01:07:23,15.08837408,0.0001418,53.219,96.2167,110.2931,249.8214,1.0599e-05,-1.19e-06,0.0,0 STARLINK-4072,1 52694U 22053AQ  23213.04680171 -.00000119  00000-0  10599-4 0  9996,2 52694  53.2190  96.2167 0001418 110.2931 249.8214 15.08837408 67085,6917.888,95.438,540.734,538.772,0.0
52694.0,STARLINK-4072,PAYLOAD,2023-08-02 00:58:10,15.08845267,0.000127,53.2183,91.7535,95.1375,264.9762,7.9243e-05,9.74e-06,0.0,0 STARLINK-4072,1 52694U 22053AQ  23214.04039878  .00000974  00000-0  79243-4 0  9998,2 52694  53.2183  91.7535 0001270  95.1375 264.9762 15.08845267 67230,6917.864,95.437,540.608,538.851,0.0
52694.0,STARLINK-4072,PAYLOAD,2023-08-03 10:21:16,15.08839457,0.0001206,53.2159,85.5086,99.4436,260.6692,9.7784e-05,1.269e-05,0.0,0 STARLINK-4072,1 52694U 22053AQ  23215.43144094  .00001269  00000-0  97784-4 0  9997,2 52694  53.2159  85.5086 0001206  99.4436 260.6692 15.08839457 67441,6917.882,95.438,540.581,538.913,0.0
52694.0,STARLINK-4072,PAYLOAD,2023-08-04 10:12:03,15.08839619,0.0001102,53.2168,81.0465,102.1381,257.9734,4.3539e-05,4.05e-06,0.0,0 STARLINK-4072,1 52694U 22053AQ  23216.42504543  .00000405  00000-0  43539-4 0  9996,2 52694  53.2168  81.0465 0001102 102.1381 257.9734 15.08839619 67591,6917.882,95.438,540.509,538.984,0.0
52694.0,STARLINK-4072,PAYLOAD,2023-08-04 16:33:35,15.08849916,0.000127,53.2171,79.8554,125.4303,234.6807,-8.4802e-06,-4.23e-06,0.0,0 STARLINK-4072,1 52694U 22053AQ  23216.68999944 -.00000423  00000-0 -84802-5 0  9998,2 52694  53.2171  79.8554 0001270 125.4303 234.6807 15.08849916 67636,6917.85,95.437,540.594,538.837,0.0
52694.0,STARLINK-4072,PAYLOAD,2023-08-05 17:59:46,15.08848062,0.0001104,53.2162,75.098,111.8866,248.2244,0.00031262,4.692e-05,0.0,0 STARLINK-4072,1 52694U 22053AQ  23217.74983821  .00004692  00000-0  31262-3 0  9993,2 52694  53.2162  75.0980 0001104 111.8866 248.2244 15.08848062 67790,6917.856,95.437,540.484,538.957,0.0
52694.0,STARLINK-4072,PAYLOAD,2023-08-06 00:21:18,15.08862496,0.0001092,53.216,73.9094,88.9869,271.1248,0.0004754,7.291e-05,0.0,0 STARLINK-4072,1 52694U 22053AQ  23218.01479248  .00007291  00000-0  47540-3 0  9991,2 52694  53.2160  73.9094 0001092  88.9869 271.1248 15.08862496 67835,6917.812,95.436,540.432,538.921,0.0
52694.0,STARLINK-4072,PAYLOAD,2023-08-06 09:53:37,15.08834725,9.09e-05,53.2163,72.1261,94.4276,265.682,-0.00010524,-1.962e-05,0.0,0 STARLINK-4072,1 52694U 22053AQ  23218.41224176 -.00001962  00000-0 -10524-3 0  9996,2 52694  53.2163  72.1261 0000909  94.4276 265.6820 15.08834725 67899,6917.897,95.438,540.39,539.133,0.0
52694.0,STARLINK-4072,PAYLOAD,2023-08-06 21:01:20,15.08825747,9.91e-05,53.2165,70.0448,101.1858,258.9245,-0.0002509,-4.277e-05,0.0,0 STARLINK-4072,1 52694U 22053AQ  23218.87592756 -.00004277  00000-0 -25090-3 0  9994,2 52694  53.2165  70.0448 0000991 101.1858 258.9245 15.08825747 67966,6917.924,95.438,540.475,539.103,0.0
52694.0,STARLINK-4072,PAYLOAD,2023-08-07 06:33:38,15.08831977,0.0001033,53.2165,68.2608,103.4665,256.6443,-6.6589e-05,-1.347e-05,0.0,0 STARLINK-4072,1 52694U 22053AQ  23219.27336781 -.00001347  00000-0 -66589-4 0  9997,2 52694  53.2165  68.2608 0001033 103.4665 256.6443 15.08831977 68027,6917.905,95.438,540.485,539.055,0.0
52694.0,STARLINK-4072,PAYLOAD,2023-08-07 20:52:07,15.08846354,0.0001004,53.2166,65.5844,106.0276,254.0827,0.00033545,5.056e-05,0.0,0 STARLINK-4072,1 52694U 22053AQ  23219.86952610  .00005056  00000-0  33545-3 0  9991,2 52694  53.2166  65.5844 0001004 106.0276 254.0827 15.08846354 68118,6917.861,95.437,540.421,539.031,0.0
52694.0,STARLINK-4072,PAYLOAD,2023-08-08 09:35:12,15.08843453,0.0001038,53.2168,63.2058,108.8415,251.2689,0.00043633,6.664e-05,0.0,0 STARLINK-4072,1 52694U 22053AQ  23220.39944977  .00006664  00000-0  43633-3 0  9993,2 52694  53.2168  63.2058 0001038 108.8415 251.2689 15.08843453 68194,6917.87,95.437,540.453,539.017,0.0
52694.0,STARLINK-4072,PAYLOAD,2023-08-09 09:25:59,15.08839256,0.0001054,53.2167,58.7454,90.418,269.6933,-2.5984e-05,-7.01e-06,0.0,0 STARLINK-4072,1 52694U 22053AQ  23221.39304919 -.00000701  00000-0 -25984-4 0  9998,2 52694  53.2167  58.7454 0001054  90.4180 269.6933 15.08839256 68343,6917.883,95.438,540.477,539.019,0.0
52694.0,STARLINK-4072,PAYLOAD,2023-08-10 18:49:05,15.08840761,9.16e-05,53.2169,52.5009,83.2444,276.8653,0.00022537,3.301e-05,0.0,0 STARLINK-4072,1 52694U 22053AQ  23222.78409112  .00003301  00000-0  22537-3 0  9990,2 52694  53.2169  52.5009 0000916  83.2444 276.8653 15.08840761 68557,6917.878,95.438,540.377,539.109,0.0
52694.0,STARLINK-4072,PAYLOAD,2023-08-11 21:50:38,15.08849131,8.62e-05,53.2166,47.4463,74.4565,285.6522,0.00021763,3.178e-05,0.0,0 STARLINK-4072,1 52694U 22053AQ  23223.91016693  .00003178  00000-0  21763-3 0  9996,2 52694  53.2166  47.4463 0000862  74.4565 285.6522 15.08849131 68729,6917.852,95.437,540.314,539.121,0.0
52694.0,STARLINK-4072,PAYLOAD,2023-08-12 05:47:34,15.08841422,9.79e-05,53.2179,45.9562,74.9943,285.1158,8.5898e-05,1.08e-05,0.0,0 STARLINK-4072,1 52694U 22053AQ  23224.24136990  .00001080  00000-0  85898-4 0  9996,2 52694  53.2179  45.9562 0000979  74.9943 285.1158 15.08841422 68770,6917.876,95.437,540.418,539.064,0.0
52694.0,STARLINK-4072,PAYLOAD,2023-08-13 18:21:26,15.08841928,8.13e-05,53.2178,39.118,88.2551,271.8535,4.8582e-05,4.86e-06,0.0,0 STARLINK-4072,1 52694U 22053AQ  23225.76489166  .00000486  00000-0  48582-4 0  9998,2 52694  53.2178  39.1180 0000813  88.2551 271.8535 15.08841928 69009,6917.874,95.437,540.302,539.177,0.0
52694.0,STARLINK-4072,PAYLOAD,2023-08-14 21:22:59,15.08849883,9.76e-05,53.2177,34.0627,77.0345,283.0756,0.00013078,1.795e-05,0.0,0 STARLINK-4072,1 52694U 22053AQ  23226.89096530  .00001795  00000-0  13078-3 0  9997,2 52694  53.2177  34.0627 0000976  77.0345 283.0756 15.08849883 69171,6917.85,95.437,540.39,539.04,0.0
52694.0,STARLINK-4072,PAYLOAD,2023-08-15 18:03:00,15.08845337,8.93e-05,53.218,30.1979,79.8216,280.2877,0.00014385,2.003e-05,0.0,0 STARLINK-4072,1 52694U 22053AQ  23227.75208938  .00002003  00000-0  14385-3 0  9995,2 52694  53.2180  30.1979 0000893  79.8216 280.2877 15.08845337 69305,6917.864,95.437,540.347,539.111,0.0
52694.0,STARLINK-4072,PAYLOAD,2023-08-16 03:35:19,15.08840492,8.67e-05,53.2183,28.4137,73.6856,286.4231,0.00010116,1.323e-05,0.0,0 STARLINK-4072,1 52694U 22053AQ  23228.14953387  .00001323  00000-0  10116-3 0  9996,2 52694  53.2183  28.4137 0000867  73.6856 286.4231 15.08840492 69362,6917.879,95.438,540.344,539.144,0.0
52694.0,STARLINK-4072,PAYLOAD,2023-08-17 09:47:39,15.08834233,0.0001211,53.2161,22.7618,89.0533,271.0598,2.0717e-05,4.2e-07,0.0,0 STARLINK-4072,1 52694U 22053AQ  23229.40809527  .00000042  00000-0  20717-4 0  9998,2 52694  53.2161  22.7618 0001211  89.0533 271.0598 15.08834233 69559,6917.898,95.438,540.601,538.925,0.0
52694.0,STARLINK-4072,PAYLOAD,2023-08-18 15:59:59,15.08834982,9.31e-05,53.2178,17.1144,77.9469,282.1628,6.9958e-05,8.26e-06,0.0,0 STARLINK-4072,1 52694U 22053AQ  23230.66665957  .00000826  00000-0  69958-4 0  9995,2 52694  53.2178  17.1144 0000931  77.9469 282.1628 15.08834982 69740,6917.896,95.438,540.405,539.117,0.0
52694.0,STARLINK-4072,PAYLOAD,2023-08-20 12:30:48,15.08821933,8.59e-05,53.2176,8.7875,95.8063,264.3027,0.00080603,0.00012557,0.0,0 STARLINK-4072,1 52694U 22053AQ  23232.52139311  .00012557  00000-0  80603-3 0  9995,2 52694  53.2176   8.7875 0000859  95.8063 264.3027 15.08821933 70023,6917.936,95.439,540.395,539.206,0.0
52694.0,STARLINK-4072,PAYLOAD,2023-08-20 18:52:19,15.08840347,0.000106,53.2178,7.5979,90.8745,269.2369,0.00057101,8.811e-05,0.0,0 STARLINK-4072,1 52694U 22053AQ  23232.78634182  .00008811  00000-0  57101-3 0  9994,2 52694  53.2178   7.5979 0001060  90.8745 269.2369 15.08840347 70061,6917.879,95.438,540.478,539.011,0.0
52694.0,STARLINK-4072,PAYLOAD,2023-08-21 12:21:34,15.08837743,0.0001011,53.2178,4.329,73.6428,286.4675,9.0935e-05,1.16e-05,0.0,0 STARLINK-4072,1 52694U 22053AQ  23233.51498355  .00001160  00000-0  90935-4 0  9999,2 52694  53.2178   4.3290 0001011  73.6428 286.4675 15.08837743 70174,6917.887,95.438,540.452,539.053,0.0
52694.0,STARLINK-4072,PAYLOAD,2023-08-23 12:03:08,15.08842281,0.0001408,53.2197,355.4132,107.6457,252.4689,0.00015936,2.249e-05,0.0,0 STARLINK-4072,1 52694U 22053AQ  23235.50218204  .00002249  00000-0  15936-3 0  9999,2 52694  53.2197 355.4132 0001408 107.6457 252.4689 15.08842281 70474,6917.873,95.437,540.712,538.764,0.0
